SL-14 R/B               
1 21423U 91042B   26016.15430699  .00000275  00000+0  31828-4 0  9999
2 21423  82.4927 269.4557 0018354  56.5237 303.7728 14.81774669845294
ERS-1                   
1 21574U 91050A   26016.56341263  .00000222  00000+0  85720-4 0  9990
2 21574  98.7897  33.4887 0031910 358.9131   1.1981 14.39396716808236
ARIANE 40 R/B           
1 21610U 91050F   26016.59954681  .00000206  00000+0  74380-4 0  9990
2 21610  98.2115  70.7640 0002421 212.6478 147.4564 14.42845018811481
INTERCOSMOS 25          
1 21819U 91086A   26016.39415953  .00000607  00000+0  11960-3 0  9991
2 21819  82.6087 341.6138 1486015 229.6435 116.5341 12.11856475490358
SL-8 R/B                
1 21876U 92008B   26016.53364681  .00000070  00000+0  56325-4 0  9995
2 21876  82.9290 306.5703 0033375 281.1534 252.2725 13.75966428702246
SL-8 R/B                
1 21938U 92020B   26016.53812793  .00000157  00000+0  14660-3 0  9991
2 21938  82.9296 192.4755 0030237  83.8135 337.7986 13.75538285693960
USA 81                  
1 21949U 92023A   26016.47468992  .00000156  00000+0  50571-4 0  9998
2 21949  85.0103 161.5450 0001758 117.4984 242.6388 14.32342681 87317
COSMOS 2219             
1 22219U 92076A   26016.59890784 -.00000092  00000+0 -23585-4 0  9994
2 22219  71.0619 126.9650 0020737 279.0939  80.7837 14.14081320711016
SL-16 R/B               
1 22220U 92076B   26016.54505617  .00000058  00000+0  53020-4 0  9996
2 22220  71.0014 298.2158 0012868 185.3132 347.2679 14.16850034714446
COSMOS 2221             
1 22236U 92080A   26016.60250489  .00001588  00000+0  13932-3 0  9995
2 22236  82.5059 328.9532 0015052  14.7089 345.4568 14.95932272773006
SL-16 R/B               
1 22285U 92093B   26016.58481048  .00000295  00000+0  17522-3 0  9990
2 22285  71.0223 113.6510 0003811 355.4533   4.6555 14.15437898705786
COSMOS 2228             
1 22286U 92094A   26016.58602372  .00001411  00000+0  12014-3 0  9999
2 22286  82.5189 287.1933 0019415 114.4579 245.8672 14.96914555768261
