CCSDS_OMM_VERS = 2.0
CREATION_DATE  = 
ORIGINATOR     = 

OBJECT_NAME    = SL-14 R/B
OBJECT_ID      = 1991-042B
CENTER_NAME    = EARTH
REF_FRAME      = TEME
TIME_SYSTEM    = UTC
MEAN_ELEMENT_THEORY = SGP/SGP4

EPOCH          = 2026-01-16T03:42:12.123936
MEAN_MOTION    = 14.81774669
ECCENTRICITY   = .00183549
INCLINATION    = 82.4927
RA_OF_ASC_NODE = 269.4557
ARG_OF_PERICENTER = 56.5237
MEAN_ANOMALY   = 303.7728

EPHEMERIS_TYPE = 0
CLASSIFICATION_TYPE = U
NORAD_CAT_ID   = 21423
ELEMENT_SET_NO = 999
REV_AT_EPOCH   = 84529
BSTAR          = .31827922E-4
MEAN_MOTION_DOT = .275E-5
MEAN_MOTION_DDOT = 0

CCSDS_OMM_VERS = 2.0
CREATION_DATE  = 
ORIGINATOR     = 

OBJECT_NAME    = ERS-1
OBJECT_ID      = 1991-050A
CENTER_NAME    = EARTH
REF_FRAME      = TEME
TIME_SYSTEM    = UTC
MEAN_ELEMENT_THEORY = SGP/SGP4

EPOCH          = 2026-01-16T13:31:18.851232
MEAN_MOTION    = 14.39396716
ECCENTRICITY   = .00319107
INCLINATION    = 98.7897
RA_OF_ASC_NODE = 33.4887
ARG_OF_PERICENTER = 358.9131
MEAN_ANOMALY   = 1.1981

EPHEMERIS_TYPE = 0
CLASSIFICATION_TYPE = U
NORAD_CAT_ID   = 21574
ELEMENT_SET_NO = 999
REV_AT_EPOCH   = 80823
BSTAR          = .85719857E-4
MEAN_MOTION_DOT = .222E-5
MEAN_MOTION_DDOT = 0

CCSDS_OMM_VERS = 2.0
CREATION_DATE  = 
ORIGINATOR     = 

OBJECT_NAME    = ARIANE 40 R/B
OBJECT_ID      = 1991-050F
CENTER_NAME    = EARTH
REF_FRAME      = TEME
TIME_SYSTEM    = UTC
MEAN_ELEMENT_THEORY = SGP/SGP4

EPOCH          = 2026-01-16T14:23:20.844384
MEAN_MOTION    = 14.42845018
ECCENTRICITY   = .00024212
INCLINATION    = 98.2115
RA_OF_ASC_NODE = 70.7640
ARG_OF_PERICENTER = 212.6478
MEAN_ANOMALY   = 147.4564

EPHEMERIS_TYPE = 0
CLASSIFICATION_TYPE = U
NORAD_CAT_ID   = 21610
ELEMENT_SET_NO = 999
REV_AT_EPOCH   = 81148
BSTAR          = .74379906E-4
MEAN_MOTION_DOT = .206E-5
MEAN_MOTION_DDOT = 0

CCSDS_OMM_VERS = 2.0
CREATION_DATE  = 
ORIGINATOR     = 

OBJECT_NAME    = INTERCOSMOS 25
OBJECT_ID      = 1991-086A
CENTER_NAME    = EARTH
REF_FRAME      = TEME
TIME_SYSTEM    = UTC
MEAN_ELEMENT_THEORY = SGP/SGP4

EPOCH          = 2026-01-16T09:27:35.383392
MEAN_MOTION    = 12.11856475
ECCENTRICITY   = .14860155
INCLINATION    = 82.6087
RA_OF_ASC_NODE = 341.6138
ARG_OF_PERICENTER = 229.6435
MEAN_ANOMALY   = 116.5341

EPHEMERIS_TYPE = 0
CLASSIFICATION_TYPE = U
NORAD_CAT_ID   = 21819
ELEMENT_SET_NO = 999
REV_AT_EPOCH   = 49035
BSTAR          = .11960447E-3
MEAN_MOTION_DOT = .607E-5
MEAN_MOTION_DDOT = 0

CCSDS_OMM_VERS = 2.0
CREATION_DATE  = 
ORIGINATOR     = 

OBJECT_NAME    = SL-8 R/B
OBJECT_ID      = 1992-008B
CENTER_NAME    = EARTH
REF_FRAME      = TEME
TIME_SYSTEM    = UTC
MEAN_ELEMENT_THEORY = SGP/SGP4

EPOCH          = 2026-01-16T12:48:27.084384
MEAN_MOTION    = 13.75966428
ECCENTRICITY   = .00333758
INCLINATION    = 82.9290
RA_OF_ASC_NODE = 306.5703
ARG_OF_PERICENTER = 281.1534
MEAN_ANOMALY   = 252.2725

EPHEMERIS_TYPE = 0
CLASSIFICATION_TYPE = U
NORAD_CAT_ID   = 21876
ELEMENT_SET_NO = 999
REV_AT_EPOCH   = 70224
BSTAR          = .56324733E-4
MEAN_MOTION_DOT = .7E-6
MEAN_MOTION_DDOT = 0

CCSDS_OMM_VERS = 2.0
CREATION_DATE  = 
ORIGINATOR     = 

OBJECT_NAME    = SL-8 R/B
OBJECT_ID      = 1992-020B
CENTER_NAME    = EARTH
REF_FRAME      = TEME
TIME_SYSTEM    = UTC
MEAN_ELEMENT_THEORY = SGP/SGP4

EPOCH          = 2026-01-16T12:54:54.253152
MEAN_MOTION    = 13.75538285
ECCENTRICITY   = .00302373
INCLINATION    = 82.9296
RA_OF_ASC_NODE = 192.4755
ARG_OF_PERICENTER = 83.8135
MEAN_ANOMALY   = 337.7986

EPHEMERIS_TYPE = 0
CLASSIFICATION_TYPE = U
NORAD_CAT_ID   = 21938
ELEMENT_SET_NO = 999
REV_AT_EPOCH   = 69396
BSTAR          = .14660441E-3
MEAN_MOTION_DOT = .157E-5
MEAN_MOTION_DDOT = 0

CCSDS_OMM_VERS = 2.0
CREATION_DATE  = 
ORIGINATOR     = 

OBJECT_NAME    = USA 81
OBJECT_ID      = 1992-023A
CENTER_NAME    = EARTH
REF_FRAME      = TEME
TIME_SYSTEM    = UTC
MEAN_ELEMENT_THEORY = SGP/SGP4

EPOCH          = 2026-01-16T11:23:33.209088
MEAN_MOTION    = 14.32342681
ECCENTRICITY   = .00017587
INCLINATION    = 85.0103
RA_OF_ASC_NODE = 161.5450
ARG_OF_PERICENTER = 117.4984
MEAN_ANOMALY   = 242.6388

EPHEMERIS_TYPE = 0
CLASSIFICATION_TYPE = U
NORAD_CAT_ID   = 21949
ELEMENT_SET_NO = 999
REV_AT_EPOCH   = 8731
BSTAR          = .5057054E-4
MEAN_MOTION_DOT = .156E-5
MEAN_MOTION_DDOT = 0

CCSDS_OMM_VERS = 2.0
CREATION_DATE  = 
ORIGINATOR     = 

OBJECT_NAME    = COSMOS 2219
OBJECT_ID      = 1992-076A
CENTER_NAME    = EARTH
REF_FRAME      = TEME
TIME_SYSTEM    = UTC
MEAN_ELEMENT_THEORY = SGP/SGP4

EPOCH          = 2026-01-16T14:22:25.637376
MEAN_MOTION    = 14.14081320
ECCENTRICITY   = .00207378
INCLINATION    = 71.0619
RA_OF_ASC_NODE = 126.9650
ARG_OF_PERICENTER = 279.0939
MEAN_ANOMALY   = 80.7837

EPHEMERIS_TYPE = 0
CLASSIFICATION_TYPE = U
NORAD_CAT_ID   = 22219
ELEMENT_SET_NO = 999
REV_AT_EPOCH   = 71101
BSTAR          = -.23584753E-4
MEAN_MOTION_DOT = -.92E-6
MEAN_MOTION_DDOT = 0

CCSDS_OMM_VERS = 2.0
CREATION_DATE  = 
ORIGINATOR     = 

OBJECT_NAME    = SL-16 R/B
OBJECT_ID      = 1992-076B
CENTER_NAME    = EARTH
REF_FRAME      = TEME
TIME_SYSTEM    = UTC
MEAN_ELEMENT_THEORY = SGP/SGP4

EPOCH          = 2026-01-16T13:04:52.853088
MEAN_MOTION    = 14.16850034
ECCENTRICITY   = .00128685
INCLINATION    = 71.0014
RA_OF_ASC_NODE = 298.2158
ARG_OF_PERICENTER = 185.3132
MEAN_ANOMALY   = 347.2679

EPHEMERIS_TYPE = 0
CLASSIFICATION_TYPE = U
NORAD_CAT_ID   = 22220
ELEMENT_SET_NO = 999
REV_AT_EPOCH   = 71444
BSTAR          = .53020124E-4
MEAN_MOTION_DOT = .58E-6
MEAN_MOTION_DDOT = 0

CCSDS_OMM_VERS = 2.0
CREATION_DATE  = 
ORIGINATOR     = 

OBJECT_NAME    = COSMOS 2221
OBJECT_ID      = 1992-080A
CENTER_NAME    = EARTH
REF_FRAME      = TEME
TIME_SYSTEM    = UTC
MEAN_ELEMENT_THEORY = SGP/SGP4

EPOCH          = 2026-01-16T14:27:36.422496
MEAN_MOTION    = 14.95932272
ECCENTRICITY   = .00150527
INCLINATION    = 82.5059
RA_OF_ASC_NODE = 328.9532
ARG_OF_PERICENTER = 14.7089
MEAN_ANOMALY   = 345.4568

EPHEMERIS_TYPE = 0
CLASSIFICATION_TYPE = U
NORAD_CAT_ID   = 22236
ELEMENT_SET_NO = 999
REV_AT_EPOCH   = 77300
BSTAR          = .1393191E-3
MEAN_MOTION_DOT = .1588E-4
MEAN_MOTION_DDOT = 0

CCSDS_OMM_VERS = 2.0
CREATION_DATE  = 
ORIGINATOR     = 

OBJECT_NAME    = SL-16 R/B
OBJECT_ID      = 1992-093B
CENTER_NAME    = EARTH
REF_FRAME      = TEME
TIME_SYSTEM    = UTC
MEAN_ELEMENT_THEORY = SGP/SGP4

EPOCH          = 2026-01-16T14:02:07.625472
MEAN_MOTION    = 14.15437898
ECCENTRICITY   = .00038117
INCLINATION    = 71.0223
RA_OF_ASC_NODE = 113.6510
ARG_OF_PERICENTER = 355.4533
MEAN_ANOMALY   = 4.6555

EPHEMERIS_TYPE = 0
CLASSIFICATION_TYPE = U
NORAD_CAT_ID   = 22285
ELEMENT_SET_NO = 999
REV_AT_EPOCH   = 70578
BSTAR          = .17521585E-3
MEAN_MOTION_DOT = .295E-5
MEAN_MOTION_DDOT = 0

CCSDS_OMM_VERS = 2.0
CREATION_DATE  = 
ORIGINATOR     = 

OBJECT_NAME    = COSMOS 2228
OBJECT_ID      = 1992-094A
CENTER_NAME    = EARTH
REF_FRAME      = TEME
TIME_SYSTEM    = UTC
MEAN_ELEMENT_THEORY = SGP/SGP4

EPOCH          = 2026-01-16T14:03:52.449408
MEAN_MOTION    = 14.96914555
ECCENTRICITY   = .00194155
INCLINATION    = 82.5189
RA_OF_ASC_NODE = 287.1933
ARG_OF_PERICENTER = 114.4579
MEAN_ANOMALY   = 245.8672

EPHEMERIS_TYPE = 0
CLASSIFICATION_TYPE = U
NORAD_CAT_ID   = 22286
ELEMENT_SET_NO = 999
REV_AT_EPOCH   = 76826
BSTAR          = .12014251E-3
MEAN_MOTION_DOT = .1411E-4
MEAN_MOTION_DDOT = 0

